start=new Date('2022-06-02T00:00:00.000Z').valueOf();
sats=[{"PERIAPSIS":"545.972","CLASSIFICATION_TYPE":"U","APOAPSIS":"548.510","PERIOD":"95.593","BSTAR":"0.00013168000000","ARG_OF_PERICENTER":"57.5703","TLE_LINE2":"2 47845  53.0545 312.3487 0001832  57.5703 302.5463 15.06390985 69083","OBJECT_TYPE":"PAYLOAD","ELEMENT_SET_NO":"999","NORAD_CAT_ID":"47845","MEAN_ANOMALY":"302.5463","MEAN_ELEMENT_THEORY":"SGP4","COUNTRY_CODE":"US","SEMIMAJOR_AXIS":"6925.376","GP_ID":"205124081","MEAN_MOTION_DDOT":"0.0000000000000","TLE_LINE1":"1 47845U 21018BL  22152.88453645  .00001680  00000-0  13168-3 0  9992","ECCENTRICITY":"0.00018320","MEAN_MOTION":"15.06390985","FILE":"3476255","INCLINATION":"53.0545","TIME_SYSTEM":"UTC","RCS_SIZE":"LARGE","RA_OF_ASC_NODE":"312.3487","MEAN_MOTION_DOT":"0.00001680","CENTER_NAME":"EARTH","REV_AT_EPOCH":"6908","OBJECT_ID":"2021-018BL","LAUNCH_DATE":"2021-03-11","EPOCH":"2022-06-01T21:13:43.949280","EPHEMERIS_TYPE":"0","REF_FRAME":"TEME","OBJECT_NAME":"STARLINK-2453","DECAY_DATE":null,"SITE":"AFETR"},{"PERIAPSIS":"546.235","APOAPSIS":"548.187","CLASSIFICATION_TYPE":"U","PERIOD":"95.592","BSTAR":"0.00010528000000","ARG_OF_PERICENTER":"62.4610","TLE_LINE2":"2 47846  53.0569 312.6623 0001409  62.4610 297.6522 15.06400837 69120","OBJECT_TYPE":"PAYLOAD","NORAD_CAT_ID":"47846","ELEMENT_SET_NO":"999","MEAN_ELEMENT_THEORY":"SGP4","MEAN_ANOMALY":"297.6522","COUNTRY_CODE":"US","GP_ID":"205125332","SEMIMAJOR_AXIS":"6925.346","MEAN_MOTION_DDOT":"0.0000000000000","TLE_LINE1":"1 47846U 21018BM  22152.81449213  .00001287  00000-0  10528-3 0  9992","ECCENTRICITY":"0.00014090","MEAN_MOTION":"15.06400837","FILE":"3476255","RCS_SIZE":"LARGE","TIME_SYSTEM":"UTC","INCLINATION":"53.0569","RA_OF_ASC_NODE":"312.6623","CENTER_NAME":"EARTH","MEAN_MOTION_DOT":"0.00001287","LAUNCH_DATE":"2021-03-11","REV_AT_EPOCH":"6912","OBJECT_ID":"2021-018BM","REF_FRAME":"TEME","EPHEMERIS_TYPE":"0","EPOCH":"2022-06-01T19:32:52.120032","OBJECT_NAME":"STARLINK-2456","DECAY_DATE":null,"SITE":"AFETR"},{"ECCENTRICITY":"0.00016580","TLE_LINE1":"1 47860U 21021A   22152.81910634  .00001990  00000-0  15241-3 0  9990","MEAN_MOTION_DDOT":"0.0000000000000","GP_ID":"205123833","SEMIMAJOR_AXIS":"6925.317","COUNTRY_CODE":"US","ELEMENT_SET_NO":"999","NORAD_CAT_ID":"47860","MEAN_ANOMALY":"280.4531","MEAN_ELEMENT_THEORY":"SGP4","OBJECT_TYPE":"PAYLOAD","ARG_OF_PERICENTER":"79.6645","TLE_LINE2":"2 47860  53.0555 342.6333 0001658  79.6645 280.4531 15.06410137 68422","PERIOD":"95.591","BSTAR":"0.00015241000000","PERIAPSIS":"546.034","APOAPSIS":"548.331","CLASSIFICATION_TYPE":"U","SITE":"AFETR","DECAY_DATE":null,"EPOCH":"2022-06-01T19:39:30.787776","REF_FRAME":"TEME","EPHEMERIS_TYPE":"0","OBJECT_NAME":"STARLINK-2258","REV_AT_EPOCH":"6842","OBJECT_ID":"2021-021A","LAUNCH_DATE":"2021-03-14","MEAN_MOTION_DOT":"0.00001990","CENTER_NAME":"EARTH","RA_OF_ASC_NODE":"342.6333","INCLINATION":"53.0555","TIME_SYSTEM":"UTC","RCS_SIZE":"LARGE","FILE":"3476255","MEAN_MOTION":"15.06410137"},{"MEAN_ANOMALY":"298.8879","MEAN_ELEMENT_THEORY":"SGP4","ELEMENT_SET_NO":"999","NORAD_CAT_ID":"47861","COUNTRY_CODE":"US","GP_ID":"205124581","SEMIMAJOR_AXIS":"6925.375","MEAN_MOTION_DDOT":"0.0000000000000","TLE_LINE1":"1 47861U 21021B   22152.77072735  .00001262  00000-0  10361-3 0  9997","ECCENTRICITY":"0.00013990","APOAPSIS":"548.209","CLASSIFICATION_TYPE":"U","PERIAPSIS":"546.272","BSTAR":"0.00010361000000","PERIOD":"95.593","TLE_LINE2":"2 47861  53.0548 327.8501 0001399  61.2251 298.8879 15.06391244 68738","ARG_OF_PERICENTER":"61.2251","OBJECT_TYPE":"PAYLOAD","REV_AT_EPOCH":"6873","OBJECT_ID":"2021-021B","LAUNCH_DATE":"2021-03-14","OBJECT_NAME":"STARLINK-2280","EPOCH":"2022-06-01T18:29:50.843040","REF_FRAME":"TEME","EPHEMERIS_TYPE":"0","DECAY_DATE":null,"SITE":"AFETR","MEAN_MOTION":"15.06391244","FILE":"3476255","INCLINATION":"53.0548","RCS_SIZE":"LARGE","TIME_SYSTEM":"UTC","RA_OF_ASC_NODE":"327.8501","CENTER_NAME":"EARTH","MEAN_MOTION_DOT":"0.00001262"},{"DECAY_DATE":null,"SITE":"AFETR","LAUNCH_DATE":"2021-03-14","REV_AT_EPOCH":"6881","OBJECT_ID":"2021-021C","REF_FRAME":"TEME","EPHEMERIS_TYPE":"0","EPOCH":"2022-06-01T21:12:23.134176","OBJECT_NAME":"STARLINK-2291","RA_OF_ASC_NODE":"322.3523","CENTER_NAME":"EARTH","MEAN_MOTION_DOT":"0.00001087","FILE":"3476255","MEAN_MOTION":"15.06403695","RCS_SIZE":"LARGE","TIME_SYSTEM":"UTC","INCLINATION":"53.0566","SEMIMAJOR_AXIS":"6925.337","GP_ID":"205124834","MEAN_MOTION_DDOT":"0.0000000000000","TLE_LINE1":"1 47862U 21021C   22152.88360109  .00001087  00000-0  91869-4 0  9993","ECCENTRICITY":"0.00014360","NORAD_CAT_ID":"47862","ELEMENT_SET_NO":"999","MEAN_ELEMENT_THEORY":"SGP4","MEAN_ANOMALY":"289.5252","COUNTRY_CODE":"US","ARG_OF_PERICENTER":"70.5892","TLE_LINE2":"2 47862  53.0566 322.3523 0001436  70.5892 289.5252 15.06403695 68814","OBJECT_TYPE":"PAYLOAD","PERIAPSIS":"546.208","CLASSIFICATION_TYPE":"U","APOAPSIS":"548.197","PERIOD":"95.592","BSTAR":"0.00009186900000"},{"PERIOD":"95.592","BSTAR":"0.00015826000000","PERIAPSIS":"546.124","APOAPSIS":"548.284","CLASSIFICATION_TYPE":"U","OBJECT_TYPE":"PAYLOAD","ARG_OF_PERICENTER":"67.5598","TLE_LINE2":"2 47863  53.0560 332.5427 0001560  67.5598 292.5556 15.06403111 68670","COUNTRY_CODE":"US","ELEMENT_SET_NO":"999","NORAD_CAT_ID":"47863","MEAN_ANOMALY":"292.5556","MEAN_ELEMENT_THEORY":"SGP4","TLE_LINE1":"1 47863U 21021D   22152.84213614  .00002077  00000-0  15826-3 0  9996","MEAN_MOTION_DDOT":"0.0000000000000","ECCENTRICITY":"0.00015600","GP_ID":"205125560","SEMIMAJOR_AXIS":"6925.339","INCLINATION":"53.0560","TIME_SYSTEM":"UTC","RCS_SIZE":"LARGE","MEAN_MOTION":"15.06403111","FILE":"3476255","MEAN_MOTION_DOT":"0.00002077","CENTER_NAME":"EARTH","RA_OF_ASC_NODE":"332.5427","EPOCH":"2022-06-01T20:12:40.562496","REF_FRAME":"TEME","EPHEMERIS_TYPE":"0","OBJECT_NAME":"STARLINK-2293","REV_AT_EPOCH":"6867","OBJECT_ID":"2021-021D","LAUNCH_DATE":"2021-03-14","SITE":"AFETR","DECAY_DATE":null},{"RA_OF_ASC_NODE":"324.1618","MEAN_MOTION_DOT":"-0.00000380","CENTER_NAME":"EARTH","FILE":"3476255","MEAN_MOTION":"15.06395221","RCS_SIZE":"LARGE","TIME_SYSTEM":"UTC","INCLINATION":"53.0539","DECAY_DATE":null,"SITE":"AFETR","LAUNCH_DATE":"2021-03-14","REV_AT_EPOCH":"6873","OBJECT_ID":"2021-021E","REF_FRAME":"TEME","EPHEMERIS_TYPE":"0","EPOCH":"2022-06-01T11:44:28.431744","OBJECT_NAME":"STARLINK-2304","ARG_OF_PERICENTER":"62.4277","TLE_LINE2":"2 47864  53.0539 324.1618 0001663  62.4277 297.6881 15.06395221 68734","OBJECT_TYPE":"PAYLOAD","PERIAPSIS":"546.077","CLASSIFICATION_TYPE":"U","APOAPSIS":"548.380","PERIOD":"95.592","BSTAR":"-0.00000659840000","GP_ID":"205124332","SEMIMAJOR_AXIS":"6925.363","TLE_LINE1":"1 47864U 21021E   22152.48921796 -.00000380  00000-0 -65984-5 0  9993","MEAN_MOTION_DDOT":"0.0000000000000","ECCENTRICITY":"0.00016630","NORAD_CAT_ID":"47864","ELEMENT_SET_NO":"999","MEAN_ELEMENT_THEORY":"SGP4","MEAN_ANOMALY":"297.6881","COUNTRY_CODE":"US"},{"PERIAPSIS":"545.790","APOAPSIS":"546.653","CLASSIFICATION_TYPE":"U","PERIOD":"95.572","BSTAR":"-0.00339900000000","ARG_OF_PERICENTER":"93.6773","TLE_LINE2":"2 47865  53.0564 332.3356 0000623  93.6773 266.4287 15.06723726 68789","OBJECT_TYPE":"PAYLOAD","NORAD_CAT_ID":"47865","ELEMENT_SET_NO":"999","MEAN_ELEMENT_THEORY":"SGP4","MEAN_ANOMALY":"266.4287","COUNTRY_CODE":"US","SEMIMAJOR_AXIS":"6924.357","GP_ID":"205124083","TLE_LINE1":"1 47865U 21021F   22152.88187756 -.00050990  00000-0 -33990-2 0  9999","MEAN_MOTION_DDOT":"0.0000000000000","ECCENTRICITY":"0.00006230","MEAN_MOTION":"15.06723726","FILE":"3476255","RCS_SIZE":"LARGE","TIME_SYSTEM":"UTC","INCLINATION":"53.0564","RA_OF_ASC_NODE":"332.3356","MEAN_MOTION_DOT":"-0.00050990","CENTER_NAME":"EARTH","LAUNCH_DATE":"2021-03-14","REV_AT_EPOCH":"6878","OBJECT_ID":"2021-021F","REF_FRAME":"TEME","EPHEMERIS_TYPE":"0","EPOCH":"2022-06-01T21:09:54.221184","OBJECT_NAME":"STARLINK-2310","DECAY_DATE":null,"SITE":"AFETR"},{"SITE":"AFETR","DECAY_DATE":null,"OBJECT_NAME":"STARLINK-2320","REF_FRAME":"TEME","EPHEMERIS_TYPE":"0","EPOCH":"2022-06-01T19:40:50.037312","LAUNCH_DATE":"2021-03-14","OBJECT_ID":"2021-021G","REV_AT_EPOCH":"6882","CENTER_NAME":"EARTH","MEAN_MOTION_DOT":"0.00001591","RA_OF_ASC_NODE":"332.6420","TIME_SYSTEM":"UTC","RCS_SIZE":"LARGE","INCLINATION":"53.0551","FILE":"3476255","MEAN_MOTION":"15.06398043","MEAN_MOTION_DDOT":"0.0000000000000","TLE_LINE1":"1 47866U 21021G   22152.82002358  .00001591  00000-0  12569-3 0  9999","ECCENTRICITY":"0.00018390","SEMIMAJOR_AXIS":"6925.355","GP_ID":"205125334","COUNTRY_CODE":"US","MEAN_ELEMENT_THEORY":"SGP4","MEAN_ANOMALY":"298.8265","NORAD_CAT_ID":"47866","ELEMENT_SET_NO":"999","OBJECT_TYPE":"PAYLOAD","TLE_LINE2":"2 47866  53.0551 332.6420 0001839  61.2909 298.8265 15.06398043 68823","ARG_OF_PERICENTER":"61.2909","BSTAR":"0.00012569000000","PERIOD":"95.592","CLASSIFICATION_TYPE":"U","APOAPSIS":"548.493","PERIAPSIS":"545.946"},{"EPOCH":"2022-06-01T17:56:00.584736","REF_FRAME":"TEME","EPHEMERIS_TYPE":"0","OBJECT_NAME":"STARLINK-2321","REV_AT_EPOCH":"6875","OBJECT_ID":"2021-021H","LAUNCH_DATE":"2021-03-14","SITE":"AFETR","DECAY_DATE":null,"INCLINATION":"53.0568","RCS_SIZE":"LARGE","TIME_SYSTEM":"UTC","FILE":"3476255","MEAN_MOTION":"15.06397838","CENTER_NAME":"EARTH","MEAN_MOTION_DOT":"0.00002122","RA_OF_ASC_NODE":"322.9549","COUNTRY_CODE":"US","ELEMENT_SET_NO":"999","NORAD_CAT_ID":"47867","MEAN_ANOMALY":"298.3947","MEAN_ELEMENT_THEORY":"SGP4","TLE_LINE1":"1 47867U 21021H   22152.74722899  .00002122  00000-0  16134-3 0  9993","ECCENTRICITY":"0.00015070","MEAN_MOTION_DDOT":"0.0000000000000","GP_ID":"205125061","SEMIMAJOR_AXIS":"6925.355","PERIOD":"95.592","BSTAR":"0.00016134000000","PERIAPSIS":"546.177","APOAPSIS":"548.264","CLASSIFICATION_TYPE":"U","OBJECT_TYPE":"PAYLOAD","ARG_OF_PERICENTER":"61.7194","TLE_LINE2":"2 47867  53.0568 322.9549 0001507  61.7194 298.3947 15.06397838 68754"}];
